[
    {
        "Altitude(m)": 554256.0699646536,
        "Argument of Periapsis(deg)": 0.0,
        "Eccentricity": 0.0,
        "Inclination(deg)": 53.0,
        "Latitude(deg)": -0.07943972283103583,
        "Longitude(deg)": -74.90982234471727,
        "Mean Anomaly(deg)": -180.00000000000003,
        "RAAN(deg)": 205.0,
        "Satellite Name": "Starlink Shell 1 913",
        "Satellite Number": 913,
        "Semi-Major Axis(m)": 6931778.249405717,
        "Time(s)": 0
    },
    {
        "Altitude(m)": 554323.2818634041,
        "Argument of Periapsis(deg)": 0.00034857847951123687,
        "Eccentricity": 0.0,
        "Inclination(deg)": 53.0,
        "Latitude(deg)": -0.5833672853302815,
        "Longitude(deg)": -74.57444489278268,
        "Mean Anomaly(deg)": -179.37316879644328,
        "RAAN(deg)": 204.99948122992254,
        "Satellite Name": "Starlink Shell 1 913",
        "Satellite Number": 913,
        "Semi-Major Axis(m)": 6931778.249405717,
        "Time(s)": 10
    },
    {
        "Altitude(m)": 554393.2797729936,
        "Argument of Periapsis(deg)": 0.0006971569590224737,
        "Eccentricity": 0.0,
        "Inclination(deg)": 53.0,
        "Latitude(deg)": -1.0872587831312868,
        "Longitude(deg)": -74.23900777955492,
        "Mean Anomaly(deg)": -178.74633759288656,
        "RAAN(deg)": 204.99896245984505,
        "Satellite Name": "Starlink Shell 1 913",
        "Satellite Number": 913,
        "Semi-Major Axis(m)": 6931778.249405717,
        "Time(s)": 20
    },
    {
        "Altitude(m)": 554466.0534574192,
        "Argument of Periapsis(deg)": 0.0010457354385337105,
        "Eccentricity": 0.0,
        "Inclination(deg)": 53.0,
        "Latitude(deg)": -1.5910913140844212,
        "Longitude(deg)": -73.9034534564885,
        "Mean Anomaly(deg)": -178.11950638932984,
        "RAAN(deg)": 204.99844368976758,
        "Satellite Name": "Starlink Shell 1 913",
        "Satellite Number": 913,
        "Semi-Major Axis(m)": 6931778.249405717,
        "Time(s)": 30
    },
    {
        "Altitude(m)": 554541.5913299399,
        "Argument of Periapsis(deg)": 0.0013943139180449475,
        "Eccentricity": 0.0,
        "Inclination(deg)": 53.0,
        "Latitude(deg)": -2.09484195462032,
        "Longitude(deg)": -73.56772382200029,
        "Mean Anomaly(deg)": -177.49267518577315,
        "RAAN(deg)": 204.99792491969012,
        "Satellite Name": "Starlink Shell 1 913",
        "Satellite Number": 913,
        "Semi-Major Axis(m)": 6931778.249405717,
        "Time(s)": 40
    },
    {
        "Altitude(m)": 554619.8804560987,
        "Argument of Periapsis(deg)": 0.0017428923975561844,
        "Eccentricity": 0.0,
        "Inclination(deg)": 53.0,
        "Latitude(deg)": -2.5984877480400925,
        "Longitude(deg)": -73.23176120481483,
        "Mean Anomaly(deg)": -176.86584398221643,
        "RAAN(deg)": 204.99740614961263,
        "Satellite Name": "Starlink Shell 1 913",
        "Satellite Number": 913,
        "Semi-Major Axis(m)": 6931778.249405717,
        "Time(s)": 50
    },
    {
        "Altitude(m)": 554700.9065574359,
        "Argument of Periapsis(deg)": 0.002091470877067421,
        "Eccentricity": 0.0,
        "Inclination(deg)": 53.0,
        "Latitude(deg)": -3.102005692771749,
        "Longitude(deg)": -72.89550783441817,
        "Mean Anomaly(deg)": -176.23901277865968,
        "RAAN(deg)": 204.99688737953517,
        "Satellite Name": "Starlink Shell 1 913",
        "Satellite Number": 913,
        "Semi-Major Axis(m)": 6931778.249405717,
        "Time(s)": 60
    },
    {
        "Altitude(m)": 554784.6540158569,
        "Argument of Periapsis(deg)": 0.0024400493565786582,
        "Eccentricity": 0.0,
        "Inclination(deg)": 53.0,
        "Latitude(deg)": -3.6053727305821552,
        "Longitude(deg)": -72.55890531148539,
        "Mean Anomaly(deg)": -175.61218157510302,
        "RAAN(deg)": 204.99636860945768,
        "Satellite Name": "Starlink Shell 1 913",
        "Satellite Number": 913,
        "Semi-Major Axis(m)": 6931778.249405717,
        "Time(s)": 70
    },
    {
        "Altitude(m)": 554871.1058786784,
        "Argument of Periapsis(deg)": 0.002788627836089895,
        "Eccentricity": 0.0,
        "Inclination(deg)": 53.0,
        "Latitude(deg)": -4.108565734734324,
        "Longitude(deg)": -72.22189559114794,
        "Mean Anomaly(deg)": -174.98535037154628,
        "RAAN(deg)": 204.9958498393802,
        "Satellite Name": "Starlink Shell 1 913",
        "Satellite Number": 913,
        "Semi-Major Axis(m)": 6931778.249405717,
        "Time(s)": 80
    },
    {
        "Altitude(m)": 554960.243864345,
        "Argument of Periapsis(deg)": 0.0031372063156011316,
        "Eccentricity": 0.0,
        "Inclination(deg)": 53.0,
        "Latitude(deg)": -4.611561498076012,
        "Longitude(deg)": -71.88442045334837,
        "Mean Anomaly(deg)": -174.35851916798958,
        "RAAN(deg)": 204.99533106930272,
        "Satellite Name": "Starlink Shell 1 913",
        "Satellite Number": 913,
        "Semi-Major Axis(m)": 6931778.249405717,
        "Time(s)": 90
    },
    {
        "Altitude(m)": 555052.0483688047,
        "Argument of Periapsis(deg)": 0.0034857847951123688,
        "Eccentricity": 0.0,
        "Inclination(deg)": 53.0,
        "Latitude(deg)": -5.114336721051108,
        "Longitude(deg)": -71.54642097314687,
        "Mean Anomaly(deg)": -173.73168796443284,
        "RAAN(deg)": 204.9948122992253,
        "Satellite Name": "Starlink Shell 1 913",
        "Satellite Number": 913,
        "Semi-Major Axis(m)": 6931778.249405717,
        "Time(s)": 100
    },
    {
        "Altitude(m)": 555146.4984725565,
        "Argument of Periapsis(deg)": 0.003834363274623606,
        "Eccentricity": 0.0,
        "Inclination(deg)": 53.0,
        "Latitude(deg)": -5.616867999620905,
        "Longitude(deg)": -71.20783850384963,
        "Mean Anomaly(deg)": -173.10485676087617,
        "RAAN(deg)": 204.99429352914777,
        "Satellite Name": "Starlink Shell 1 913",
        "Satellite Number": 913,
        "Semi-Major Axis(m)": 6931778.249405717,
        "Time(s)": 110
    },
    {
        "Altitude(m)": 555243.5719483403,
        "Argument of Periapsis(deg)": 0.004182941754134842,
        "Eccentricity": 0.0,
        "Inclination(deg)": 53.0,
        "Latitude(deg)": -6.11913181308439,
        "Longitude(deg)": -70.86861414720342,
        "Mean Anomaly(deg)": -172.4780255573194,
        "RAAN(deg)": 204.99377475907033,
        "Satellite Name": "Starlink Shell 1 913",
        "Satellite Number": 913,
        "Semi-Major Axis(m)": 6931778.249405717,
        "Time(s)": 120
    },
    {
        "Altitude(m)": 555343.2452694977,
        "Argument of Periapsis(deg)": 0.004531520233646079,
        "Eccentricity": 0.0,
        "Inclination(deg)": 53.0,
        "Latitude(deg)": -6.62110451178486,
        "Longitude(deg)": -70.52868822352706,
        "Mean Anomaly(deg)": -171.8511943537627,
        "RAAN(deg)": 204.99325598899287,
        "Satellite Name": "Starlink Shell 1 913",
        "Satellite Number": 913,
        "Semi-Major Axis(m)": 6931778.249405717,
        "Time(s)": 130
    },
    {
        "Altitude(m)": 555445.4936189691,
        "Argument of Periapsis(deg)": 0.0048800987131573164,
        "Eccentricity": 0.0,
        "Inclination(deg)": 53.0,
        "Latitude(deg)": -7.122762304694008,
        "Longitude(deg)": -70.18800125464597,
        "Mean Anomaly(deg)": -171.224363150206,
        "RAAN(deg)": 204.99273721891538,
        "Satellite Name": "Starlink Shell 1 913",
        "Satellite Number": 913,
        "Semi-Major Axis(m)": 6931778.249405717,
        "Time(s)": 140
    },
    {
        "Altitude(m)": 555550.2908989361,
        "Argument of Periapsis(deg)": 0.005228677192668553,
        "Eccentricity": 0.0,
        "Inclination(deg)": 53.0,
        "Latitude(deg)": -7.624081246858823,
        "Longitude(deg)": -69.84649343388027,
        "Mean Anomaly(deg)": -170.59753194664924,
        "RAAN(deg)": 204.99221844883792,
        "Satellite Name": "Starlink Shell 1 913",
        "Satellite Number": 913,
        "Semi-Major Axis(m)": 6931778.249405717,
        "Time(s)": 150
    },
    {
        "Altitude(m)": 555657.6097411185,
        "Argument of Periapsis(deg)": 0.00557725567217979,
        "Eccentricity": 0.0,
        "Inclination(deg)": 53.0,
        "Latitude(deg)": -8.125037226701044,
        "Longitude(deg)": -69.50410409595573,
        "Mean Anomaly(deg)": -169.97070074309258,
        "RAAN(deg)": 204.99169967876045,
        "Satellite Name": "Starlink Shell 1 913",
        "Satellite Number": 913,
        "Semi-Major Axis(m)": 6931778.249405717,
        "Time(s)": 160
    },
    {
        "Altitude(m)": 555767.4215176845,
        "Argument of Periapsis(deg)": 0.0059258341516910265,
        "Eccentricity": 0.0,
        "Inclination(deg)": 53.0,
        "Latitude(deg)": -8.625605953158821,
        "Longitude(deg)": -69.16077269970724,
        "Mean Anomaly(deg)": -169.34386953953583,
        "RAAN(deg)": 204.99118090868296,
        "Satellite Name": "Starlink Shell 1 913",
        "Satellite Number": 913,
        "Semi-Major Axis(m)": 6931778.249405717,
        "Time(s)": 170
    },
    {
        "Altitude(m)": 555879.6963528038,
        "Argument of Periapsis(deg)": 0.006274412631202263,
        "Eccentricity": 0.0,
        "Inclination(deg)": 53.0,
        "Latitude(deg)": -9.125762942655538,
        "Longitude(deg)": -68.81643829782743,
        "Mean Anomaly(deg)": -168.71703833597917,
        "RAAN(deg)": 204.99066213860547,
        "Satellite Name": "Starlink Shell 1 913",
        "Satellite Number": 913,
        "Semi-Major Axis(m)": 6931778.249405717,
        "Time(s)": 180
    }
]